start=new Date('2022-06-22T00:00:00.000Z').valueOf();
sats=[{"PERIOD":"95.592","ELEMENT_SET_NO":"999","MEAN_MOTION":"15.06394636","TLE_LINE2":"2 48310  53.0571  62.7892 0001544  69.3999 290.7155 15.06394636 63665","EPOCH":"2022-06-21T19:59:16.041984","MEAN_ANOMALY":"290.7155","OBJECT_TYPE":"PAYLOAD","RCS_SIZE":"LARGE","RA_OF_ASC_NODE":"62.7892","INCLINATION":"53.0571","SEMIMAJOR_AXIS":"6925.365","NORAD_CAT_ID":"48310","TLE_LINE1":"1 48310U 21036AL  22172.83282456  .00000627  00000-0  60993-4 0  9996","CLASSIFICATION_TYPE":"U","LAUNCH_DATE":"2021-04-29","FILE":"3499203","OBJECT_ID":"2021-036AL","ECCENTRICITY":"0.00015440","MEAN_ELEMENT_THEORY":"SGP4","EPHEMERIS_TYPE":"0","SITE":"AFETR","COUNTRY_CODE":"US","ARG_OF_PERICENTER":"69.3999","CENTER_NAME":"EARTH","GP_ID":"206581696","MEAN_MOTION_DOT":"0.00000627","REV_AT_EPOCH":"6366","MEAN_MOTION_DDOT":"0.0000000000000","REF_FRAME":"TEME","OBJECT_NAME":"STARLINK-2536","BSTAR":"0.00006099300000","DECAY_DATE":null,"PERIAPSIS":"546.161","APOAPSIS":"548.299","TIME_SYSTEM":"UTC"},{"MEAN_MOTION_DDOT":"0.0000000000000","MEAN_MOTION_DOT":"0.00002452","REV_AT_EPOCH":"6364","REF_FRAME":"TEME","CENTER_NAME":"EARTH","GP_ID":"206580452","SITE":"AFETR","ARG_OF_PERICENTER":"71.1372","COUNTRY_CODE":"US","EPHEMERIS_TYPE":"0","MEAN_ELEMENT_THEORY":"SGP4","TIME_SYSTEM":"UTC","BSTAR":"0.00018338000000","OBJECT_NAME":"STARLINK-2534","DECAY_DATE":null,"PERIAPSIS":"546.322","APOAPSIS":"548.065","RA_OF_ASC_NODE":"63.3977","INCLINATION":"53.0545","OBJECT_TYPE":"PAYLOAD","RCS_SIZE":"LARGE","NORAD_CAT_ID":"48311","SEMIMAJOR_AXIS":"6925.329","MEAN_ANOMALY":"288.9753","EPOCH":"2022-06-21T16:42:52.632864","MEAN_MOTION":"15.06406528","TLE_LINE2":"2 48311  53.0545  63.3977 0001259  71.1372 288.9753 15.06406528 63642","PERIOD":"95.592","ELEMENT_SET_NO":"999","OBJECT_ID":"2021-036AM","ECCENTRICITY":"0.00012590","LAUNCH_DATE":"2021-04-29","FILE":"3499203","CLASSIFICATION_TYPE":"U","TLE_LINE1":"1 48311U 21036AM  22172.69644251  .00002452  00000-0  18338-3 0  9999"},{"OBJECT_TYPE":"PAYLOAD","RCS_SIZE":"LARGE","RA_OF_ASC_NODE":"63.1248","INCLINATION":"53.0567","NORAD_CAT_ID":"48312","SEMIMAJOR_AXIS":"6925.264","EPOCH":"2022-06-21T18:13:05.872800","MEAN_ANOMALY":"301.4156","MEAN_MOTION":"15.06427560","TLE_LINE2":"2 48312  53.0567  63.1248 0001650  58.6994 301.4156 15.06427560 63659","PERIOD":"95.590","ELEMENT_SET_NO":"999","ECCENTRICITY":"0.00016500","OBJECT_ID":"2021-036AN","LAUNCH_DATE":"2021-04-29","FILE":"3499203","CLASSIFICATION_TYPE":"U","TLE_LINE1":"1 48312U 21036AN  22172.75909575 -.00004255  00000-0 -26674-3 0  9997","REV_AT_EPOCH":"6365","MEAN_MOTION_DOT":"-0.00004255","MEAN_MOTION_DDOT":"0.0000000000000","REF_FRAME":"TEME","CENTER_NAME":"EARTH","GP_ID":"206581203","SITE":"AFETR","COUNTRY_CODE":"US","ARG_OF_PERICENTER":"58.6994","MEAN_ELEMENT_THEORY":"SGP4","EPHEMERIS_TYPE":"0","TIME_SYSTEM":"UTC","OBJECT_NAME":"STARLINK-2061","BSTAR":"-0.00026674000000","DECAY_DATE":null,"APOAPSIS":"548.272","PERIAPSIS":"545.986"},{"ELEMENT_SET_NO":"999","PERIOD":"95.592","MEAN_MOTION":"15.06401839","TLE_LINE2":"2 48313  53.0560  62.5265 0001562  68.1075 292.0080 15.06401839 63666","MEAN_ANOMALY":"292.0080","EPOCH":"2022-06-21T21:18:53.113536","SEMIMAJOR_AXIS":"6925.343","NORAD_CAT_ID":"48313","RA_OF_ASC_NODE":"62.5265","INCLINATION":"53.0560","RCS_SIZE":"LARGE","OBJECT_TYPE":"PAYLOAD","TLE_LINE1":"1 48313U 21036AP  22172.88811474  .00001305  00000-0  10648-3 0  9997","CLASSIFICATION_TYPE":"U","FILE":"3499203","LAUNCH_DATE":"2021-04-29","OBJECT_ID":"2021-036AP","ECCENTRICITY":"0.00015620","EPHEMERIS_TYPE":"0","MEAN_ELEMENT_THEORY":"SGP4","ARG_OF_PERICENTER":"68.1075","COUNTRY_CODE":"US","SITE":"AFETR","GP_ID":"206581448","CENTER_NAME":"EARTH","REF_FRAME":"TEME","MEAN_MOTION_DDOT":"0.0000000000000","REV_AT_EPOCH":"6366","MEAN_MOTION_DOT":"0.00001305","PERIAPSIS":"546.126","DECAY_DATE":null,"APOAPSIS":"548.290","BSTAR":"0.00010648000000","OBJECT_NAME":"STARLINK-2541","TIME_SYSTEM":"UTC"},{"MEAN_MOTION":"15.06396877","TLE_LINE2":"2 48314  53.0554  62.5648 0001249  77.5085 282.6043 15.06396877 63661","ELEMENT_SET_NO":"999","PERIOD":"95.592","NORAD_CAT_ID":"48314","SEMIMAJOR_AXIS":"6925.358","OBJECT_TYPE":"PAYLOAD","RCS_SIZE":"LARGE","RA_OF_ASC_NODE":"62.5648","INCLINATION":"53.0554","EPOCH":"2022-06-21T21:13:34.971456","MEAN_ANOMALY":"282.6043","CLASSIFICATION_TYPE":"U","TLE_LINE1":"1 48314U 21036AQ  22172.88443254 -.00000131  00000-0  10119-4 0  9996","ECCENTRICITY":"0.00012490","OBJECT_ID":"2021-036AQ","FILE":"3499203","LAUNCH_DATE":"2021-04-29","COUNTRY_CODE":"US","ARG_OF_PERICENTER":"77.5085","SITE":"AFETR","MEAN_ELEMENT_THEORY":"SGP4","EPHEMERIS_TYPE":"0","REF_FRAME":"TEME","MEAN_MOTION_DOT":"-0.00000131","REV_AT_EPOCH":"6366","MEAN_MOTION_DDOT":"0.0000000000000","GP_ID":"206582196","CENTER_NAME":"EARTH","TIME_SYSTEM":"UTC","DECAY_DATE":null,"PERIAPSIS":"546.358","APOAPSIS":"548.088","OBJECT_NAME":"STARLINK-2549","BSTAR":"0.00001011900000"},{"SITE":"AFETR","ARG_OF_PERICENTER":"66.7624","COUNTRY_CODE":"US","EPHEMERIS_TYPE":"0","MEAN_ELEMENT_THEORY":"SGP4","MEAN_MOTION_DDOT":"0.0000000000000","REV_AT_EPOCH":"6366","MEAN_MOTION_DOT":"0.00000700","REF_FRAME":"TEME","CENTER_NAME":"EARTH","GP_ID":"206580951","TIME_SYSTEM":"UTC","BSTAR":"0.00006588200000","OBJECT_NAME":"STARLINK-2506","DECAY_DATE":null,"APOAPSIS":"548.365","PERIAPSIS":"546.075","TLE_LINE2":"2 48315  53.0540  62.5615 0001654  66.7624 293.3539 15.06397903 63660","MEAN_MOTION":"15.06397903","PERIOD":"95.592","ELEMENT_SET_NO":"999","INCLINATION":"53.0540","RA_OF_ASC_NODE":"62.5615","RCS_SIZE":"LARGE","OBJECT_TYPE":"PAYLOAD","NORAD_CAT_ID":"48315","SEMIMAJOR_AXIS":"6925.355","MEAN_ANOMALY":"293.3539","EPOCH":"2022-06-21T21:06:54.338976","CLASSIFICATION_TYPE":"U","TLE_LINE1":"1 48315U 21036AR  22172.87979559  .00000700  00000-0  65882-4 0  9996","OBJECT_ID":"2021-036AR","ECCENTRICITY":"0.00016540","LAUNCH_DATE":"2021-04-29","FILE":"3499203"},{"OBJECT_NAME":"STARLINK-2507","BSTAR":"0.00012745000000","DECAY_DATE":null,"PERIAPSIS":"545.918","APOAPSIS":"548.491","TIME_SYSTEM":"UTC","CENTER_NAME":"EARTH","GP_ID":"206580705","MEAN_MOTION_DOT":"0.00001617","REV_AT_EPOCH":"6366","MEAN_MOTION_DDOT":"0.0000000000000","REF_FRAME":"TEME","MEAN_ELEMENT_THEORY":"SGP4","EPHEMERIS_TYPE":"0","SITE":"AFETR","COUNTRY_CODE":"US","ARG_OF_PERICENTER":"62.6287","LAUNCH_DATE":"2021-04-29","FILE":"3499203","OBJECT_ID":"2021-036AS","ECCENTRICITY":"0.00018580","TLE_LINE1":"1 48316U 21036AS  22172.87705274  .00001617  00000-0  12745-3 0  9995","CLASSIFICATION_TYPE":"U","EPOCH":"2022-06-21T21:02:57.356736","MEAN_ANOMALY":"297.4891","RCS_SIZE":"LARGE","OBJECT_TYPE":"PAYLOAD","INCLINATION":"53.0563","RA_OF_ASC_NODE":"62.5851","NORAD_CAT_ID":"48316","SEMIMAJOR_AXIS":"6925.339","PERIOD":"95.592","ELEMENT_SET_NO":"999","MEAN_MOTION":"15.06403025","TLE_LINE2":"2 48316  53.0563  62.5851 0001858  62.6287 297.4891 15.06403025 63663"},{"CLASSIFICATION_TYPE":"U","TLE_LINE1":"1 48317U 21036AT  22172.87337544  .00000696  00000-0  65609-4 0  9991","OBJECT_ID":"2021-036AT","ECCENTRICITY":"0.00014600","FILE":"3499203","LAUNCH_DATE":"2021-04-29","TLE_LINE2":"2 48317  53.0549  62.6082 0001460  69.7215 290.3931 15.06396559 63663","MEAN_MOTION":"15.06396559","ELEMENT_SET_NO":"999","PERIOD":"95.592","SEMIMAJOR_AXIS":"6925.359","NORAD_CAT_ID":"48317","INCLINATION":"53.0549","RA_OF_ASC_NODE":"62.6082","RCS_SIZE":"LARGE","OBJECT_TYPE":"PAYLOAD","MEAN_ANOMALY":"290.3931","EPOCH":"2022-06-21T20:57:39.638016","TIME_SYSTEM":"UTC","APOAPSIS":"548.235","DECAY_DATE":null,"PERIAPSIS":"546.213","BSTAR":"0.00006560900000","OBJECT_NAME":"STARLINK-2513","ARG_OF_PERICENTER":"69.7215","COUNTRY_CODE":"US","SITE":"AFETR","EPHEMERIS_TYPE":"0","MEAN_ELEMENT_THEORY":"SGP4","REF_FRAME":"TEME","MEAN_MOTION_DDOT":"0.0000000000000","REV_AT_EPOCH":"6366","MEAN_MOTION_DOT":"0.00000696","GP_ID":"206581948","CENTER_NAME":"EARTH"},{"SITE":"AFETR","ARG_OF_PERICENTER":"60.1544","COUNTRY_CODE":"US","EPHEMERIS_TYPE":"0","MEAN_ELEMENT_THEORY":"SGP4","MEAN_MOTION_DDOT":"0.0000000000000","MEAN_MOTION_DOT":"0.00000559","REV_AT_EPOCH":"6352","REF_FRAME":"TEME","CENTER_NAME":"EARTH","GP_ID":"206581697","TIME_SYSTEM":"UTC","BSTAR":"0.00005646700000","OBJECT_NAME":"STARLINK-2509","DECAY_DATE":null,"APOAPSIS":"548.471","PERIAPSIS":"545.986","MEAN_MOTION":"15.06395241","TLE_LINE2":"2 48318  53.0543  72.6534 0001794  60.1544 299.9623 15.06395241 63526","PERIOD":"95.592","ELEMENT_SET_NO":"999","INCLINATION":"53.0543","RA_OF_ASC_NODE":"72.6534","RCS_SIZE":"LARGE","OBJECT_TYPE":"PAYLOAD","SEMIMAJOR_AXIS":"6925.363","NORAD_CAT_ID":"48318","MEAN_ANOMALY":"299.9623","EPOCH":"2022-06-21T20:45:42.872256","CLASSIFICATION_TYPE":"U","TLE_LINE1":"1 48318U 21036AU  22172.86507954  .00000559  00000-0  56467-4 0  9995","ECCENTRICITY":"0.00017940","OBJECT_ID":"2021-036AU","LAUNCH_DATE":"2021-04-29","FILE":"3499203"},{"PERIAPSIS":"546.058","DECAY_DATE":null,"APOAPSIS":"548.354","BSTAR":"0.00011550000000","OBJECT_NAME":"STARLINK-2512","TIME_SYSTEM":"UTC","GP_ID":"206580453","CENTER_NAME":"EARTH","REF_FRAME":"TEME","MEAN_MOTION_DDOT":"0.0000000000000","MEAN_MOTION_DOT":"0.00001439","REV_AT_EPOCH":"6352","EPHEMERIS_TYPE":"0","MEAN_ELEMENT_THEORY":"SGP4","ARG_OF_PERICENTER":"65.8383","COUNTRY_CODE":"US","SITE":"AFETR","FILE":"3499203","LAUNCH_DATE":"2021-04-29","OBJECT_ID":"2021-036AV","ECCENTRICITY":"0.00016580","TLE_LINE1":"1 48319U 21036AV  22172.86044575  .00001439  00000-0  11550-3 0  9992","CLASSIFICATION_TYPE":"U","MEAN_ANOMALY":"294.2779","EPOCH":"2022-06-21T20:39:02.512800","NORAD_CAT_ID":"48319","SEMIMAJOR_AXIS":"6925.341","INCLINATION":"53.0564","RA_OF_ASC_NODE":"72.6568","OBJECT_TYPE":"PAYLOAD","RCS_SIZE":"LARGE","ELEMENT_SET_NO":"999","PERIOD":"95.592","TLE_LINE2":"2 48319  53.0564  72.6568 0001658  65.8383 294.2779 15.06402391 63524","MEAN_MOTION":"15.06402391"}];
